CTC2_L_00025016-03
1 10062U 25343QU  26075.70040509  .00000000  00000+0  00000-0 0  9990
2 10062  65.0000 180.0000 0000000   0.0000   0.0000 15.69614517    17
CTC2_L_00025016-04
1 10063U 24142BP  26075.70040509  .00000000  00000+0  00000-0 0  9997
2 10063  65.0000 180.0000 0000000   0.0000  90.0000 15.69614517    17
CTC2_L_00025017-01
1 10064U 25838II  26075.70040509  .00000000  00000+0  00000-0 0  9991
2 10064  65.0000 192.0000 0000000   0.0000 192.0000 15.69614517    14
CTC2_L_00025017-02
1 10065U 23997TA  26075.70040509  .00000000  00000+0  00000-0 0  9996
2 10065  65.0000 192.0000 0000000   0.0000 282.0000 15.69614517    15
CTC2_L_00025017-03
1 10066U 26848XD  26075.70040509  .00000000  00000+0  00000-0 0  9995
2 10066  65.0000 192.0000 0000000   0.0000  12.0000 15.69614517    17
CTC2_L_00025017-04
1 10067U 23037TC  26075.70040509  .00000000  00000+0  00000-0 0  9993
2 10067  65.0000 192.0000 0000000   0.0000 102.0000 15.69614517    18
CTC2_L_00025018-01
1 10068U 22847HB  26075.70040509  .00000000  00000+0  00000-0 0  9992
2 10068  65.0000 204.0000 0000000   0.0000 204.0000 15.69614517    16
CTC2_L_00025018-02
1 10069U 22051LQ  26075.70040509  .00000000  00000+0  00000-0 0  9990
2 10069  65.0000 204.0000 0000000   0.0000 294.0000 15.69614517    16
CTC2_L_00025018-03
1 10070U 24172KB  26075.70040509  .00000000  00000+0  00000-0 0  9998
2 10070  65.0000 204.0000 0000000   0.0000  24.0000 15.69614517    19
CTC2_L_00025018-04
1 10071U 22233AW  26075.70040509  .00000000  00000+0  00000-0 0  9995
2 10071  65.0000 204.0000 0000000   0.0000 114.0000 15.69614517    10
CTC2_L_00025019-01
1 10072U 24856MU  26075.70040509  .00000000  00000+0  00000-0 0  9999
2 10072  65.0000 216.0000 0000000   0.0000 216.0000 15.69614517    17
CTC2_L_00025019-02
1 10073U 26486X   26075.70040509  .00000000  00000+0  00000-0 0  9991
2 10073  65.0000 216.0000 0000000   0.0000 306.0000 15.69614517    18
CTC2_L_00025019-03
1 10074U 25026XP  26075.70040509  .00000000  00000+0  00000-0 0  9991
2 10074  65.0000 216.0000 0000000   0.0000  36.0000 15.69614517    19
CTC2_L_00025019-04
1 10075U 24843QC  26075.70040509  .00000000  00000+0  00000-0 0  9998
2 10075  65.0000 216.0000 0000000   0.0000 126.0000 15.69614517    10
CTC2_L_00025020-01
1 10076U 23137PG  26075.70040509  .00000000  00000+0  00000-0 0  9994
2 10076  65.0000 228.0000 0000000   0.0000 228.0000 15.69614517    17
CTC2_L_00025020-02
1 10077U 22571EY  26075.70040509  .00000000  00000+0  00000-0 0  9996
2 10077  65.0000 228.0000 0000000   0.0000 318.0000 15.69614517    18
CTC2_L_00025020-03
1 10078U 23998UG  26075.70040509  .00000000  00000+0  00000-0 0  9991
2 10078  65.0000 228.0000 0000000   0.0000  48.0000 15.69614517    19
CTC2_L_00025020-04
1 10079U 24818GL  26075.70040509  .00000000  00000+0  00000-0 0  9994
2 10079  65.0000 228.0000 0000000   0.0000 138.0000 15.69614517    10
CTC2_L_00025021-01
1 10080U 22424TS  26075.70040509  .00000000  00000+0  00000-0 0  9997
2 10080  65.0000 240.0000 0000000   0.0000 240.0000 15.69614517    10
CTC2_L_00025021-02
1 10081U 22706QH  26075.70040509  .00000000  00000+0  00000-0 0  9991
2 10081  65.0000 240.0000 0000000   0.0000 330.0000 15.69614517    11
CTC2_L_00025021-03
1 10082U 23583HJ  26075.70040509  .00000000  00000+0  00000-0 0  9996
2 10082  65.0000 240.0000 0000000   0.0000  60.0000 15.69614517    12
CTC2_L_00025021-04
1 10083U 24034PD  26075.70040509  .00000000  00000+0  00000-0 0  9999
2 10083  65.0000 240.0000 0000000   0.0000 150.0000 15.69614517    13
CTC2_L_00025022-01
1 10084U 25883IS  26075.70040509  .00000000  00000+0  00000-0 0  9993
2 10084  65.0000 252.0000 0000000   0.0000 252.0000 15.69614517    10
CTC2_L_00025022-02
1 10085U 26886VH  26075.70040509  .00000000  00000+0  00000-0 0  9998
2 10085  65.0000 252.0000 0000000   0.0000 342.0000 15.69614517    11
CTC2_L_00025022-03
1 10086U 23323O   26075.70040509  .00000000  00000+0  00000-0 0  9992
2 10086  65.0000 252.0000 0000000   0.0000  72.0000 15.69614517    12
CTC2_L_00025022-04
1 10087U 26023UB  26075.70040509  .00000000  00000+0  00000-0 0  9993
2 10087  65.0000 252.0000 0000000   0.0000 162.0000 15.69614517    13
CTC2_L_00025023-01
1 10088U 26667RB  26075.70040509  .00000000  00000+0  00000-0 0  9998
2 10088  65.0000 264.0000 0000000   0.0000 264.0000 15.69614517    10
CTC2_L_00025023-02
1 10089U 24610PK  26075.70040509  .00000000  00000+0  00000-0 0  9995
2 10089  65.0000 264.0000 0000000   0.0000 354.0000 15.69614517    11
CTC2_L_00025023-03
1 10090U 26663CO  26075.70040509  .00000000  00000+0  00000-0 0  9997
2 10090  65.0000 264.0000 0000000   0.0000  84.0000 15.69614517    13
CTC2_L_00025023-04
1 10091U 26980DS  26075.70040509  .00000000  00000+0  00000-0 0  9990
2 10091  65.0000 264.0000 0000000   0.0000 174.0000 15.69614517    14
CTC2_L_00025024-01
1 10092U 25980RQ  26075.70040509  .00000000  00000+0  00000-0 0  9990
2 10092  65.0000 276.0000 0000000   0.0000 276.0000 15.69614517    11
CTC2_L_00025024-02
1 10093U 25999DG  26075.70040509  .00000000  00000+0  00000-0 0  9991
2 10093  65.0000 276.0000 0000000   0.0000   6.0000 15.69614517    13
CTC2_L_00025024-03
1 10094U 23854IR  26075.70040509  .00000000  00000+0  00000-0 0  9990
2 10094  65.0000 276.0000 0000000   0.0000  96.0000 15.69614517    13
CTC2_L_00025024-04
1 10095U 23677EI  26075.70040509  .00000000  00000+0  00000-0 0  9994
2 10095  65.0000 276.0000 0000000   0.0000 186.0000 15.69614517    14
CTC2_L_00025025-01
1 10096U 23888BS  26075.70040509  .00000000  00000+0  00000-0 0  9999
2 10096  65.0000 288.0000 0000000   0.0000 288.0000 15.69614517    11
CTC2_L_00025025-02
1 10097U 23745BP  26075.70040509  .00000000  00000+0  00000-0 0  9992
2 10097  65.0000 288.0000 0000000   0.0000  18.0000 15.69614517    13
CTC2_L_00025025-03
1 10098U 23315GK  26075.70040509  .00000000  00000+0  00000-0 0  9996
2 10098  65.0000 288.0000 0000000   0.0000 108.0000 15.69614517    14
CTC2_L_00025025-04
1 10099U 23730FE  26075.70040509  .00000000  00000+0  00000-0 0  9998
2 10099  65.0000 288.0000 0000000   0.0000 198.0000 15.69614517    14
CTC2_L_00025026-01
1 10100U 25753LT  26075.70040509  .00000000  00000+0  00000-0 0  9998
2 10100  65.0000 300.0000 0000000   0.0000 300.0000 15.69614517    17
CTC2_L_00025026-02
1 10101U 25871HP  26075.70040509  .00000000  00000+0  00000-0 0  9990
2 10101  65.0000 300.0000 0000000   0.0000  30.0000 15.69614517    18
CTC2_L_00025026-03
1 10102U 23284DI  26075.70040509  .00000000  00000+0  00000-0 0  9997
2 10102  65.0000 300.0000 0000000   0.0000 120.0000 15.69614517    19
CTC2_L_00025026-04
1 10103U 25624KX  26075.70040509  .00000000  00000+0  00000-0 0  9998
2 10103  65.0000 300.0000 0000000   0.0000 210.0000 15.69614517    10
CTC2_L_00025027-01
1 10104U 26144WY  26075.70040509  .00000000  00000+0  00000-0 0  9997
2 10104  65.0000 312.0000 0000000   0.0000 312.0000 15.69614517    17
CTC2_L_00025027-02
1 10105U 23761QL  26075.70040509  .00000000  00000+0  00000-0 0  9990
2 10105  65.0000 312.0000 0000000   0.0000  42.0000 15.69614517    18
CTC2_L_00025027-03
1 10106U 24167DE  26075.70040509  .00000000  00000+0  00000-0 0  9992
2 10106  65.0000 312.0000 0000000   0.0000 132.0000 15.69614517    19
CTC2_L_00025027-04
1 10107U 25625VP  26075.70040509  .00000000  00000+0  00000-0 0  9993
2 10107  65.0000 312.0000 0000000   0.0000 222.0000 15.69614517    10
CTC2_L_00025028-01
1 10108U 26125NN  26075.70040509  .00000000  00000+0  00000-0 0  9990
2 10108  65.0000 324.0000 0000000   0.0000 324.0000 15.69614517    17
CTC2_L_00025028-02
1 10109U 26182ZI  26075.70040509  .00000000  00000+0  00000-0 0  9994
2 10109  65.0000 324.0000 0000000   0.0000  54.0000 15.69614517    18
CTC2_L_00025028-03
1 10110U 23003OM  26075.70040509  .00000000  00000+0  00000-0 0  9995
2 10110  65.0000 324.0000 0000000   0.0000 144.0000 15.69614517    10
CTC2_L_00025028-04
1 10111U 22865MV  26075.70040509  .00000000  00000+0  00000-0 0  9991
2 10111  65.0000 324.0000 0000000   0.0000 234.0000 15.69614517    11
CTC2_L_00025029-01
1 10112U 26488QG  26075.70040509  .00000000  00000+0  00000-0 0  9997
2 10112  65.0000 336.0000 0000000   0.0000 336.0000 15.69614517    18
CTC2_L_00025029-02
1 10113U 26202NQ  26075.70040509  .00000000  00000+0  00000-0 0  9992
2 10113  65.0000 336.0000 0000000   0.0000  66.0000 15.69614517    19
CTC2_L_00025029-03
1 10114U 24808OS  26075.70040509  .00000000  00000+0  00000-0 0  9993
2 10114  65.0000 336.0000 0000000   0.0000 156.0000 15.69614517    10
CTC2_L_00025029-04
1 10115U 23495HX  26075.70040509  .00000000  00000+0  00000-0 0  9995
2 10115  65.0000 336.0000 0000000   0.0000 246.0000 15.69614517    11
CTC2_L_00025030-01
1 10116U 25252WY  26075.70040509  .00000000  00000+0  00000-0 0  9999
2 10116  65.0000 348.0000 0000000   0.0000 348.0000 15.69614517    18
CTC2_L_00025030-02
1 10117U 23333AG  26075.70040509  .00000000  00000+0  00000-0 0  9998
2 10117  65.0000 348.0000 0000000   0.0000  78.0000 15.69614517    19
CTC2_L_00025030-03
1 10118U 25889ID  26075.70040509  .00000000  00000+0  00000-0 0  9997
2 10118  65.0000 348.0000 0000000   0.0000 168.0000 15.69614517    10
CTC2_L_00025030-04
1 10119U 23115BE  26075.70040509  .00000000  00000+0  00000-0 0  9998
2 10119  65.0000 348.0000 0000000   0.0000 258.0000 15.69614517    11
